[{"OBJECT_NAME":"LEMUR-2-STAR-FOX","OBJECT_ID":"2025-009CR","EPOCH":"2026-03-09T19:30:12.149568","MEAN_MOTION":15.00891969,"ECCENTRICITY":0.00025005,"INCLINATION":97.7038,"RA_OF_ASC_NODE":151.2547,"ARG_OF_PERICENTER":152.191,"MEAN_ANOMALY":207.9448,"EPHEMERIS_TYPE":0,"CLASSIFICATION_TYPE":"U","NORAD_CAT_ID":62696,"ELEMENT_SET_NO":999,"REV_AT_EPOCH":6264,"BSTAR":0.000772765,"MEAN_MOTION_DOT":9.785e-5,"MEAN_MOTION_DDOT":0},{"OBJECT_NAME":"STARLINK-34479","OBJECT_ID":"2025-126X","EPOCH":"2026-03-09T22:28:15.392064","MEAN_MOTION":14.98343157,"ECCENTRICITY":0.00051811,"INCLINATION":70.0026,"RA_OF_ASC_NODE":34.0385,"ARG_OF_PERICENTER":268.5272,"MEAN_ANOMALY":91.5294,"EPHEMERIS_TYPE":0,"CLASSIFICATION_TYPE":"U","NORAD_CAT_ID":64365,"ELEMENT_SET_NO":999,"REV_AT_EPOCH":4071,"BSTAR":0.001054264,"MEAN_MOTION_DOT":0.00012515,"MEAN_MOTION_DDOT":0}]
